OPS 7218 (TRANSIT 16)   
1 02807U 67048A   25067.83584793  .00000170  00000+0  24831-3 0  9997
2 02807  89.6812   3.1174 0019185 197.7184 216.1222 13.50642359845113
OPS 4947 (TRANSIT 17)   
1 02965U 67092A   25067.94091941  .00000233  00000+0  32893-3 0  9998
2 02965  89.2378  45.7743 0046676 327.9442  85.0091 13.53369835833262
OPS 7034 (TRANSIT 18)   
1 03133U 68012A   25068.12718192  .00000167  00000+0  23952-3 0  9996
2 03133  90.0185 272.9987 0072211 257.4454 222.1910 13.51485901808069
NNSS 19 (TRANSIT 19)    
1 04507U 70067A   25067.90677545  .00000195  00000+0  26074-3 0  9995
2 04507  89.9822 234.6541 0172562  21.6073 339.2246 13.51219218684564
NNSS 20 (TRANSIT 20)    
1 06909U 73081A   25068.03528504  .00000357  00000+0  35491-3 0  9990
2 06909  89.8376 259.5074 0154592 193.2679 166.4399 13.71287533765693
TRANSAT                 
1 10457U 77106A   25067.59303981  .00000122  00000+0  17840-3 0  9993
2 10457  89.6412  88.5823 0023419 279.6654 197.2756 13.48891336329806
NOVA 1                  
1 12458U 81044A   25068.08929551  .00000063  00000+0  12746-3 0  9998
2 12458  89.8514  95.3519 0015241 145.6982 268.5450 13.23233484115287
NOVA 3                  
1 15362U 84110A   25067.91765435  .00000125  00000+0  27608-3 0  9994
2 15362  90.1126  77.3699 0032439  21.2542  41.1579 13.23002918950398
OSCAR 30                
1 15935U 85066A   25068.14610258  .00000128  00000+0  21346-3 0  9995
2 15935  90.1669  95.2755 0168931 149.2304 278.5343 13.36014318927404
OSCAR 24                
1 15936U 85066B   25067.66401774  .00000121  00000+0  20149-3 0  9996
2 15936  90.1758  87.4132 0169621 156.8849 329.6544 13.35874554929397
POLAR BEAR              
1 17070U 86088A   25067.88122458  .00000172  00000+0  16798-3 0  9996
2 17070  89.6172 194.9086 0037670 240.1699 238.5121 13.75177528921461
OSCAR 27                
1 18361U 87080A   25067.91528303  .00000149  00000+0  23478-3 0  9993
2 18361  90.3628  68.9852 0102282 303.9162  55.2291 13.44838955838098
OSCAR 29                
1 18362U 87080B   25067.90619080  .00000136  00000+0  21388-3 0  9990
2 18362  90.3639  69.4192 0104478 326.6500  94.9741 13.44390410837639
OSCAR 23                
1 19070U 88033A   25067.84728120  .00000082  00000+0  15082-3 0  9999
2 19070  90.3223   7.7210 0187745 235.8305 179.1966 13.27735374785521
OSCAR 32                
1 19071U 88033B   25067.77826749  .00000076  00000+0  13957-3 0  9990
2 19071  90.3225   7.8372 0186360 223.0023 164.7317 13.27903373785630
NOVA 2                  
1 19223U 88052A   25067.68622012  .00000113  00000+0  24677-3 0  9990
2 19223  89.9770  78.7424 0032215  64.1696  68.7303 13.22898618772580
OSCAR 25                
1 19419U 88074A   25067.79390183  .00000156  00000+0  25469-3 0  9991
2 19419  90.0304  19.3496 0095112 323.2905 107.2331 13.42559603788970
OSCAR 31                
1 19420U 88074B   25067.88166003  .00000136  00000+0  21957-3 0  9991
2 19420  90.0320  19.6557 0093146 317.1468  95.6844 13.42530034789092
